ONEWEB-0696             
1 56723U 23068P   25330.17566245 -.00000139  00000+0 -40327-3 0  9994
2 56723  87.8970 299.7397 0002210  84.9303 275.2080 13.15548178122677
ONEWEB-0703             
1 56724U 23068Q   25330.18517399 -.00000161  00000+0 -46174-3 0  9993
2 56724  87.8971 299.7194 0002752  97.1155 263.0288 13.15548749122563
ONEWEB-0721             
1 56725U 23068R   25329.99380633  .00000138  00000+0  29655-3 0  9997
2 56725  86.6791 150.3306 0001428  89.7289 270.4008 13.22452559131082
ONEWEB-0015             
1 61594U 24188A   25330.20745514 -.00000489  00000+0 -14154-2 0  9998
2 61594  87.8861  61.5215 0001484 124.4464 235.6804 13.11415769 57858
ONEWEB-0687             
1 61595U 24188B   25330.17747120  .00000013  00000+0  33787-6 0  9998
2 61595  87.9113  46.2689 0001187 106.5935 253.5327 13.17650696 59160
ONEWEB-0688             
1 61596U 24188C   25329.97833202 -.00000006  00000+0 -48039-4 0  9990
2 61596  87.9118  46.3088 0001623 147.8670 212.2560 13.17647410 59137
ONEWEB-0689             
1 61597U 24188D   25330.16507406  .00000522  00000+0  14382-2 0  9991
2 61597  87.8847  61.4659 0001398  96.9142 263.2145 13.11417055 57840
ONEWEB-0690             
1 61598U 24188E   25330.17525595  .00000590  00000+0  16292-2 0  9999
2 61598  87.8882  61.4730 0002436 106.8291 253.3104 13.11416907 58021
ONEWEB-0691             
1 61599U 24188F   25330.17016536  .00000608  00000+0  16787-2 0  9999
2 61599  87.8828  61.3808 0001639 118.5183 241.6110 13.11418495 57874
ONEWEB-0692             
1 61600U 24188G   25330.19049589  .00000083  00000+0  19859-3 0  9999
2 61600  87.8858  61.5185 0001918  75.0148 285.1192 13.11414094 57861
ONEWEB-0693             
1 61601U 24188H   25330.14202413  .00000053  00000+0  10221-3 0  9993
2 61601  87.9120  46.2953 0002537 113.6185 246.5213 13.17647645 59140
ONEWEB-0695             
1 61602U 24188J   25330.16677039  .00000525  00000+0  14456-2 0  9993
2 61602  87.8861  61.5118 0001474  84.5454 275.5842 13.11417625 57852
ONEWEB-0697             
1 61603U 24188K   25330.19897955 -.00000278  00000+0 -82108-3 0  9995
2 61603  87.8862  61.4958 0001945  79.5257 280.6090 13.11416517 57843
ONEWEB-0698             
1 61604U 24188L   25330.17695110  .00000559  00000+0  15417-2 0  9991
2 61604  87.8860  61.5150 0002646  87.3734 272.7697 13.11416270 57866
ONEWEB-0699             
1 61605U 24188M   25330.02818723 -.00000529  00000+0 -15513-2 0  9999
2 61605  87.8817  76.7578 0001889  82.0662 278.0680 13.10372071 56703
ONEWEB-0700             
1 61606U 24188N   25330.02985113 -.00000504  00000+0 -14807-2 0  9996
2 61606  87.8823  76.6418 0001297  75.2220 284.9051 13.10372694 56697
ONEWEB-0701             
1 61607U 24188P   25330.19918446  .00000270  00000+0  73639-3 0  9997
2 61607  87.8812  76.7249 0001958  77.3229 282.8117 13.10375302 56728
