[{"OBJECT_NAME":"ONEWEB-0696","OBJECT_ID":"2023-068P","EPOCH":"2025-11-26T04:12:57.235680","MEAN_MOTION":13.15548178,"ECCENTRICITY":0.000221,"INCLINATION":87.897,"RA_OF_ASC_NODE":299.7397,"ARG_OF_PERICENTER":84.9303,"MEAN_ANOMALY":275.208,"EPHEMERIS_TYPE":0,"CLASSIFICATION_TYPE":"U","NORAD_CAT_ID":56723,"ELEMENT_SET_NO":999,"REV_AT_EPOCH":12267,"BSTAR":-0.00040327,"MEAN_MOTION_DOT":-1.39e-6,"MEAN_MOTION_DDOT":0},{"OBJECT_NAME":"ONEWEB-0703","OBJECT_ID":"2023-068Q","EPOCH":"2025-11-26T04:26:39.032736","MEAN_MOTION":13.15548749,"ECCENTRICITY":0.0002752,"INCLINATION":87.8971,"RA_OF_ASC_NODE":299.7194,"ARG_OF_PERICENTER":97.1155,"MEAN_ANOMALY":263.0288,"EPHEMERIS_TYPE":0,"CLASSIFICATION_TYPE":"U","NORAD_CAT_ID":56724,"ELEMENT_SET_NO":999,"REV_AT_EPOCH":12256,"BSTAR":-0.00046174,"MEAN_MOTION_DOT":-1.61e-6,"MEAN_MOTION_DDOT":0},{"OBJECT_NAME":"ONEWEB-0721","OBJECT_ID":"2023-068R","EPOCH":"2025-11-25T23:51:04.866912","MEAN_MOTION":13.22452559,"ECCENTRICITY":0.00014285,"INCLINATION":86.6791,"RA_OF_ASC_NODE":150.3306,"ARG_OF_PERICENTER":89.7289,"MEAN_ANOMALY":270.4008,"EPHEMERIS_TYPE":0,"CLASSIFICATION_TYPE":"U","NORAD_CAT_ID":56725,"ELEMENT_SET_NO":999,"REV_AT_EPOCH":13108,"BSTAR":0.00029654668,"MEAN_MOTION_DOT":1.38e-6,"MEAN_MOTION_DDOT":0},{"OBJECT_NAME":"ONEWEB-0015","OBJECT_ID":"2024-188A","EPOCH":"2025-11-26T04:58:44.124096","MEAN_MOTION":13.11415769,"ECCENTRICITY":0.0001484,"INCLINATION":87.8861,"RA_OF_ASC_NODE":61.5215,"ARG_OF_PERICENTER":124.4464,"MEAN_ANOMALY":235.6804,"EPHEMERIS_TYPE":0,"CLASSIFICATION_TYPE":"U","NORAD_CAT_ID":61594,"ELEMENT_SET_NO":999,"REV_AT_EPOCH":5785,"BSTAR":-0.0014154,"MEAN_MOTION_DOT":-4.89e-6,"MEAN_MOTION_DDOT":0},{"OBJECT_NAME":"ONEWEB-0687","OBJECT_ID":"2024-188B","EPOCH":"2025-11-26T04:15:33.511680","MEAN_MOTION":13.17650696,"ECCENTRICITY":0.0001187,"INCLINATION":87.9113,"RA_OF_ASC_NODE":46.2689,"ARG_OF_PERICENTER":106.5935,"MEAN_ANOMALY":253.5327,"EPHEMERIS_TYPE":0,"CLASSIFICATION_TYPE":"U","NORAD_CAT_ID":61595,"ELEMENT_SET_NO":999,"REV_AT_EPOCH":5916,"BSTAR":3.3787e-7,"MEAN_MOTION_DOT":1.3e-7,"MEAN_MOTION_DDOT":0},{"OBJECT_NAME":"ONEWEB-0688","OBJECT_ID":"2024-188C","EPOCH":"2025-11-25T23:28:47.886528","MEAN_MOTION":13.1764741,"ECCENTRICITY":0.00016236,"INCLINATION":87.9118,"RA_OF_ASC_NODE":46.3088,"ARG_OF_PERICENTER":147.867,"MEAN_ANOMALY":212.256,"EPHEMERIS_TYPE":0,"CLASSIFICATION_TYPE":"U","NORAD_CAT_ID":61596,"ELEMENT_SET_NO":999,"REV_AT_EPOCH":5913,"BSTAR":-4.8038573e-5,"MEAN_MOTION_DOT":-6.0e-8,"MEAN_MOTION_DDOT":0},{"OBJECT_NAME":"ONEWEB-0689","OBJECT_ID":"2024-188D","EPOCH":"2025-11-26T03:57:42.398784","MEAN_MOTION":13.11417055,"ECCENTRICITY":0.0001398,"INCLINATION":87.8847,"RA_OF_ASC_NODE":61.4659,"ARG_OF_PERICENTER":96.9142,"MEAN_ANOMALY":263.2145,"EPHEMERIS_TYPE":0,"CLASSIFICATION_TYPE":"U","NORAD_CAT_ID":61597,"ELEMENT_SET_NO":999,"REV_AT_EPOCH":5784,"BSTAR":0.0014382,"MEAN_MOTION_DOT":5.22e-6,"MEAN_MOTION_DDOT":0},{"OBJECT_NAME":"ONEWEB-0690","OBJECT_ID":"2024-188E","EPOCH":"2025-11-26T04:12:22.114080","MEAN_MOTION":13.11416907,"ECCENTRICITY":0.0002436,"INCLINATION":87.8882,"RA_OF_ASC_NODE":61.473,"ARG_OF_PERICENTER":106.8291,"MEAN_ANOMALY":253.3104,"EPHEMERIS_TYPE":0,"CLASSIFICATION_TYPE":"U","NORAD_CAT_ID":61598,"ELEMENT_SET_NO":999,"REV_AT_EPOCH":5802,"BSTAR":0.0016292,"MEAN_MOTION_DOT":5.9e-6,"MEAN_MOTION_DDOT":0},{"OBJECT_NAME":"ONEWEB-0691","OBJECT_ID":"2024-188F","EPOCH":"2025-11-26T04:05:02.287104","MEAN_MOTION":13.11418495,"ECCENTRICITY":0.0001639,"INCLINATION":87.8828,"RA_OF_ASC_NODE":61.3808,"ARG_OF_PERICENTER":118.5183,"MEAN_ANOMALY":241.611,"EPHEMERIS_TYPE":0,"CLASSIFICATION_TYPE":"U","NORAD_CAT_ID":61599,"ELEMENT_SET_NO":999,"REV_AT_EPOCH":5787,"BSTAR":0.0016787,"MEAN_MOTION_DOT":6.08e-6,"MEAN_MOTION_DDOT":0},{"OBJECT_NAME":"ONEWEB-0692","OBJECT_ID":"2024-188G","EPOCH":"2025-11-26T04:34:18.844896","MEAN_MOTION":13.11414094,"ECCENTRICITY":0.0001918,"INCLINATION":87.8858,"RA_OF_ASC_NODE":61.5185,"ARG_OF_PERICENTER":75.0148,"MEAN_ANOMALY":285.1192,"EPHEMERIS_TYPE":0,"CLASSIFICATION_TYPE":"U","NORAD_CAT_ID":61600,"ELEMENT_SET_NO":999,"REV_AT_EPOCH":5786,"BSTAR":0.00019859,"MEAN_MOTION_DOT":8.3e-7,"MEAN_MOTION_DDOT":0},{"OBJECT_NAME":"ONEWEB-0693","OBJECT_ID":"2024-188H","EPOCH":"2025-11-26T03:24:30.884832","MEAN_MOTION":13.17647645,"ECCENTRICITY":0.0002537,"INCLINATION":87.912,"RA_OF_ASC_NODE":46.2953,"ARG_OF_PERICENTER":113.6185,"MEAN_ANOMALY":246.5213,"EPHEMERIS_TYPE":0,"CLASSIFICATION_TYPE":"U","NORAD_CAT_ID":61601,"ELEMENT_SET_NO":999,"REV_AT_EPOCH":5914,"BSTAR":0.00010221,"MEAN_MOTION_DOT":5.3e-7,"MEAN_MOTION_DDOT":0},{"OBJECT_NAME":"ONEWEB-0695","OBJECT_ID":"2024-188J","EPOCH":"2025-11-26T04:00:08.961696","MEAN_MOTION":13.11417625,"ECCENTRICITY":0.0001474,"INCLINATION":87.8861,"RA_OF_ASC_NODE":61.5118,"ARG_OF_PERICENTER":84.5454,"MEAN_ANOMALY":275.5842,"EPHEMERIS_TYPE":0,"CLASSIFICATION_TYPE":"U","NORAD_CAT_ID":61602,"ELEMENT_SET_NO":999,"REV_AT_EPOCH":5785,"BSTAR":0.0014456,"MEAN_MOTION_DOT":5.25e-6,"MEAN_MOTION_DDOT":0},{"OBJECT_NAME":"ONEWEB-0697","OBJECT_ID":"2024-188K","EPOCH":"2025-11-26T04:46:31.833120","MEAN_MOTION":13.11416517,"ECCENTRICITY":0.0001945,"INCLINATION":87.8862,"RA_OF_ASC_NODE":61.4958,"ARG_OF_PERICENTER":79.5257,"MEAN_ANOMALY":280.609,"EPHEMERIS_TYPE":0,"CLASSIFICATION_TYPE":"U","NORAD_CAT_ID":61603,"ELEMENT_SET_NO":999,"REV_AT_EPOCH":5784,"BSTAR":-0.00082108,"MEAN_MOTION_DOT":-2.78e-6,"MEAN_MOTION_DDOT":0},{"OBJECT_NAME":"ONEWEB-0698","OBJECT_ID":"2024-188L","EPOCH":"2025-11-26T04:14:48.575040","MEAN_MOTION":13.1141627,"ECCENTRICITY":0.0002646,"INCLINATION":87.886,"RA_OF_ASC_NODE":61.515,"ARG_OF_PERICENTER":87.3734,"MEAN_ANOMALY":272.7697,"EPHEMERIS_TYPE":0,"CLASSIFICATION_TYPE":"U","NORAD_CAT_ID":61604,"ELEMENT_SET_NO":999,"REV_AT_EPOCH":5786,"BSTAR":0.0015417,"MEAN_MOTION_DOT":5.59e-6,"MEAN_MOTION_DDOT":0},{"OBJECT_NAME":"ONEWEB-0699","OBJECT_ID":"2024-188M","EPOCH":"2025-11-26T00:40:35.376672","MEAN_MOTION":13.10372071,"ECCENTRICITY":0.0001889,"INCLINATION":87.8817,"RA_OF_ASC_NODE":76.7578,"ARG_OF_PERICENTER":82.0662,"MEAN_ANOMALY":278.068,"EPHEMERIS_TYPE":0,"CLASSIFICATION_TYPE":"U","NORAD_CAT_ID":61605,"ELEMENT_SET_NO":999,"REV_AT_EPOCH":5670,"BSTAR":-0.0015513,"MEAN_MOTION_DOT":-5.29e-6,"MEAN_MOTION_DDOT":0},{"OBJECT_NAME":"ONEWEB-0700","OBJECT_ID":"2024-188N","EPOCH":"2025-11-26T00:42:59.137632","MEAN_MOTION":13.10372694,"ECCENTRICITY":0.0001297,"INCLINATION":87.8823,"RA_OF_ASC_NODE":76.6418,"ARG_OF_PERICENTER":75.222,"MEAN_ANOMALY":284.9051,"EPHEMERIS_TYPE":0,"CLASSIFICATION_TYPE":"U","NORAD_CAT_ID":61606,"ELEMENT_SET_NO":999,"REV_AT_EPOCH":5669,"BSTAR":-0.0014807,"MEAN_MOTION_DOT":-5.04e-6,"MEAN_MOTION_DDOT":0},{"OBJECT_NAME":"ONEWEB-0701","OBJECT_ID":"2024-188P","EPOCH":"2025-11-26T04:46:49.537344","MEAN_MOTION":13.10375302,"ECCENTRICITY":0.0001958,"INCLINATION":87.8812,"RA_OF_ASC_NODE":76.7249,"ARG_OF_PERICENTER":77.3229,"MEAN_ANOMALY":282.8117,"EPHEMERIS_TYPE":0,"CLASSIFICATION_TYPE":"U","NORAD_CAT_ID":61607,"ELEMENT_SET_NO":999,"REV_AT_EPOCH":5672,"BSTAR":0.00073639,"MEAN_MOTION_DOT":2.7e-6,"MEAN_MOTION_DDOT":0}]
